LEMUR-2-DEMBITZ         
1 42842U 17042T   26068.47492167  .00020231  00000+0  76561-3 0  9991
2 42842  97.3807 250.9241 0006961  17.1421 343.0051 15.26947128473114
STARLINK-32781          
1 62848U 25019V   26068.44723966  .00026900  00000+0  98315-3 0  9993
2 62848  43.0046  90.3672 0001940 245.1224 114.9426 15.27590634 62218
